GLOBALSTAR M069         
1 31573U 07020C   26199.88098781 -.00000072  00000+0  19067-3 0  9999
2 31573  52.0011 162.4190 0001537 217.7382 166.5826 12.23472344882687
GLOBALSTAR M072         
1 31574U 07020D   26199.85959903 -.00000083  00000+0  10856-4 0  9999
2 31574  51.9949  15.9248 0001657  42.3071  97.2196 11.91658811878754
GLOBALSTAR M066         
1 32265U 07048C   26199.78184715 -.00000039  00000+0  47372-3 0  9993
2 32265  51.9611 327.2145 0005552 108.9165  56.2792 12.30389915864116
GLOBALSTAR M079         
1 37188U 10054A   26199.91173130 -.00000108  00000+0 -25509-4 0  9994
2 37188  52.0054  12.0956 0001129  83.7766  80.3936 12.62266401726552
GLOBALSTAR M074         
1 37189U 10054B   26199.51367115 -.00000108  00000+0 -23623-4 0  9994
2 37189  52.0034  12.5681 0000860  98.2672 296.1009 12.62262064727111
GLOBALSTAR M076         
1 37190U 10054C   26199.88696105 -.00000092  00000+0  65446-4 0  9990
2 37190  52.0048  11.6376 0001098  97.6610  73.7248 12.62262528726879
GLOBALSTAR M077         
1 37191U 10054D   26199.88898156 -.00000101  00000+0 -43080-3 0  9992
2 37191  51.9961  98.8316 0002198 231.8864 208.0459 11.67547245724846
GLOBALSTAR M075         
1 37192U 10054E   26199.86479344 -.00000101  00000+0  16805-4 0  9990
2 37192  51.9955  53.7414 0000778  70.4833 300.7164 12.62267882725941
GLOBALSTAR M073         
1 37193U 10054F   26199.81831877 -.00000095  00000+0  51589-4 0  9999
2 37193  52.0081 328.0085 0001023 101.5931  56.6217 12.62266940727925
GLOBALSTAR M083         
1 37739U 11033A   26199.99306038 -.00000085  00000+0  10701-3 0  9997
2 37739  51.9859 275.6631 0000706 109.9939  63.9172 12.62264328696961
GLOBALSTAR M088         
1 37740U 11033B   26199.72887854 -.00000113  00000+0 -50044-4 0  9998
2 37740  52.0189 182.9693 0000104  44.9161 126.6719 12.62269480692476
GLOBALSTAR M091         
1 37741U 11033C   26199.86659494 -.00000095  00000+0  46736-4 0  9992
2 37741  51.9985 145.4687 0000511  31.0171 347.2313 12.62264247693283
GLOBALSTAR M085         
1 37742U 11033D   26199.86610992 -.00000086  00000+0  10149-3 0  9991
2 37742  52.0127  96.7904 0000851  47.2547  28.7944 12.62264419693795
GLOBALSTAR M081         
1 37743U 11033E   26199.89315642 -.00000090  00000+0  79001-4 0  9997
2 37743  51.9958  99.1079 0000737  59.6976  19.1850 12.62265327693948
GLOBALSTAR M089         
1 37744U 11033F   26199.77420131 -.00000100  00000+0  20903-4 0  9994
2 37744  51.9940  53.6227 0000712  92.7993 346.4037 12.62267619694771
GLOBALSTAR M084         
1 38040U 11080A   26199.72900681 -.00000086  00000+0  10179-3 0  9990
2 38040  52.0015 281.2602 0000756 135.0336  38.4577 12.62263620672740
GLOBALSTAR M080         
1 38041U 11080B   26199.26912443 -.00000082  00000+0  12420-3 0  9996
2 38041  52.0065 284.3895 0000297  76.7380 295.7039 12.62257576672816
GLOBALSTAR M082         
1 38042U 11080C   26199.55533374 -.00000098  00000+0  34250-4 0  9994
2 38042  52.0056 239.0219 0000183  67.5911  96.0739 12.62264316673557
GLOBALSTAR M092         
1 38043U 11080D   26199.76688873 -.00000085  00000+0  10429-3 0  9990
2 38043  52.0105 328.7754 0000747 108.7229  56.1496 12.62267869672034
GLOBALSTAR M090         
1 38044U 11080E   26199.82118500 -.00000101  00000+0  13926-4 0  9998
2 38044  52.0099 232.1784 0000396  85.4112  85.7541 12.62269594673701
GLOBALSTAR M086         
1 38045U 11080F   26199.60599674 -.00000106  00000+0 -12888-4 0  9992
2 38045  51.9875 232.7109 0001452 116.6179  60.1664 12.62287862673625
GLOBALSTAR M097         
1 39072U 13005A   26199.59894807 -.00000106  00000+0 -10927-4 0  9998
2 39072  52.0030 147.7145 0000506  43.0635 317.0271 12.62271325620879
GLOBALSTAR M093         
1 39073U 13005B   26199.80974884 -.00000092  00000+0  65161-4 0  9990
2 39073  52.0095 140.4321 0000739  49.7550 310.3382 12.62266353620856
GLOBALSTAR M094         
1 39074U 13005C   26199.88879167 -.00000096  00000+0  42542-4 0  9999
2 39074  51.9969  54.2774 0001034  68.3861 291.7116 12.62264230622479
GLOBALSTAR M096         
1 39075U 13005D   26199.98150033 -.00000081  00000+0  12914-3 0  9998
2 39075  52.0075 102.8215 0000807  49.9335 310.1602 12.62265811621402
GLOBALSTAR M078         
1 39076U 13005E   26199.16279582 -.00000123  00000+0 -10464-3 0  9996
2 39076  51.9845 189.2810 0000905 346.9844  13.0999 12.62260116619925
GLOBALSTAR M095         
1 39077U 13005F   26199.66457479 -.00000120  00000+0 -93177-4 0  9995
2 39077  52.0053 185.4009 0000544  19.0354 341.0533 12.62264083619846
GLOBALSTAR M087         
1 52888U 22064A   26199.75685569 -.00000089  00000+0  81459-4 0  9991
2 52888  52.0016 326.3411 0000899  88.7530 271.3440 12.62269384195126
